{
  "type": "FeatureCollection",
  "features": [
    {
      "type": "Feature",
      "properties": {
        "norad_id": 34556,
        "name": "COSMOS 2251 DEB",
        "group": "cosmos-2251-debris",
        "lat": -69.87302629881016,
        "lon": -20.545538618944747,
        "alt_km": 642.3625409559208,
        "timestamp": "2025-12-21T07:34:34.909121+00:00",
        "meta_object_name": "COSMOS 2251 DEB",
        "meta_object_id": "1993-036US",
        "meta_epoch": "2025-12-20T17:58:02.520192",
        "meta_mean_motion": 14.78025681,
        "meta_eccentricity": 0.00068003,
        "meta_inclination": 74.0159,
        "meta_ra_of_asc_node": 109.1125,
        "meta_arg_of_pericenter": 169.8839,
        "meta_mean_anomaly": 311.7101,
        "meta_ephemeris_type": 0,
        "meta_classification_type": "U",
        "meta_norad_cat_id": 34556,
        "meta_element_set_no": 999,
        "meta_rev_at_epoch": 88447,
        "meta_bstar": 0.0013550836,
        "meta_mean_motion_dot": 9.769e-05,
        "meta_mean_motion_ddot": 0,
        "tle_line1": "1 34556U 93036US  25354.74864028  .00009769  00000+0  13551-2 0  9999",
        "tle_line2": "2 34556  74.0159 109.1125 0006800 169.8839 311.7101 14.78025681884475"
      },
      "geometry": {
        "type": "Point",
        "coordinates": [
          -20.545538618944747,
          -69.87302629881016
        ]
      }
    },
    {
      "type": "Feature",
      "properties": {
        "norad_id": 34560,
        "name": "COSMOS 2251 DEB",
        "group": "cosmos-2251-debris",
        "lat": -23.449865890446507,
        "lon": 118.28519203795693,
        "alt_km": 664.855919630847,
        "timestamp": "2025-12-21T07:34:34.909130+00:00",
        "meta_object_name": "COSMOS 2251 DEB",
        "meta_object_id": "1993-036UW",
        "meta_epoch": "2025-12-20T19:11:31.276320",
        "meta_mean_motion": 14.72325113,
        "meta_eccentricity": 0.00140663,
        "meta_inclination": 74.017,
        "meta_ra_of_asc_node": 126.4319,
        "meta_arg_of_pericenter": 208.7057,
        "meta_mean_anomaly": 272.8847,
        "meta_ephemeris_type": 0,
        "meta_classification_type": "U",
        "meta_norad_cat_id": 34560,
        "meta_element_set_no": 999,
        "meta_rev_at_epoch": 88370,
        "meta_bstar": 0.0013555548,
        "meta_mean_motion_dot": 8.565e-05,
        "meta_mean_motion_ddot": 0,
        "tle_line1": "1 34560U 93036UW  25354.79966755  .00008565  00000+0  13556-2 0  9997",
        "tle_line2": "2 34560  74.0170 126.4319 0014066 208.7057 272.8847 14.72325113883704"
      },
      "geometry": {
        "type": "Point",
        "coordinates": [
          118.28519203795693,
          -23.449865890446507
        ]
      }
    },
    {
      "type": "Feature",
      "properties": {
        "norad_id": 34563,
        "name": "COSMOS 2251 DEB",
        "group": "cosmos-2251-debris",
        "lat": 25.99702491614972,
        "lon": -164.27830819669177,
        "alt_km": 738.4953293290364,
        "timestamp": "2025-12-21T07:34:34.909140+00:00",
        "meta_object_name": "COSMOS 2251 DEB",
        "meta_object_id": "1993-036UZ",
        "meta_epoch": "2025-12-20T00:30:18.501408",
        "meta_mean_motion": 14.46530475,
        "meta_eccentricity": 0.00138969,
        "meta_inclination": 74.0369,
        "meta_ra_of_asc_node": 190.1141,
        "meta_arg_of_pericenter": 283.7366,
        "meta_mean_anomaly": 204.2441,
        "meta_ephemeris_type": 0,
        "meta_classification_type": "U",
        "meta_norad_cat_id": 34563,
        "meta_element_set_no": 999,
        "meta_rev_at_epoch": 88302,
        "meta_bstar": 0.00029395545,
        "meta_mean_motion_dot": 1.033e-05,
        "meta_mean_motion_ddot": 0,
        "tle_line1": "1 34563U 93036UZ  25354.02104747  .00001033  00000+0  29396-3 0  9994",
        "tle_line2": "2 34563  74.0369 190.1141 0013896 283.7366 204.2441 14.46530475883028"
      },
      "geometry": {
        "type": "Point",
        "coordinates": [
          -164.27830819669177,
          25.99702491614972
        ]
      }
    },
    {
      "type": "Feature",
      "properties": {
        "norad_id": 34564,
        "name": "COSMOS 2251 DEB",
        "group": "cosmos-2251-debris",
        "lat": -13.230254610795535,
        "lon": -141.7145256512002,
        "alt_km": 747.5225203078771,
        "timestamp": "2025-12-21T07:34:34.909149+00:00",
        "meta_object_name": "COSMOS 2251 DEB",
        "meta_object_id": "1993-036VA",
        "meta_epoch": "2025-12-20T21:42:50.196960",
        "meta_mean_motion": 14.40702951,
        "meta_eccentricity": 0.00193122,
        "meta_inclination": 74.0317,
        "meta_ra_of_asc_node": 222.9055,
        "meta_arg_of_pericenter": 325.6519,
        "meta_mean_anomaly": 50.1473,
        "meta_ephemeris_type": 0,
        "meta_classification_type": "U",
        "meta_norad_cat_id": 34564,
        "meta_element_set_no": 999,
        "meta_rev_at_epoch": 88124,
        "meta_bstar": 0.00017363968,
        "meta_mean_motion_dot": 5.29e-06,
        "meta_mean_motion_ddot": 0,
        "tle_line1": "1 34564U 93036VA  25354.90474765  .00000529  00000+0  17364-3 0  9993",
        "tle_line2": "2 34564  74.0317 222.9055 0019312 325.6519  50.1473 14.40702951881244"
      },
      "geometry": {
        "type": "Point",
        "coordinates": [
          -141.7145256512002,
          -13.230254610795535
        ]
      }
    },
    {
      "type": "Feature",
      "properties": {
        "norad_id": 34567,
        "name": "COSMOS 2251 DEB",
        "group": "cosmos-2251-debris",
        "lat": -54.87541812054224,
        "lon": -14.651212727516224,
        "alt_km": 769.776379210819,
        "timestamp": "2025-12-21T07:34:34.909158+00:00",
        "meta_object_name": "COSMOS 2251 DEB",
        "meta_object_id": "1993-036VD",
        "meta_epoch": "2025-12-20T19:14:28.599360",
        "meta_mean_motion": 14.24024668,
        "meta_eccentricity": 0.00742314,
        "meta_inclination": 74.0407,
        "meta_ra_of_asc_node": 142.27,
        "meta_arg_of_pericenter": 214.8446,
        "meta_mean_anomaly": 269.2592,
        "meta_ephemeris_type": 0,
        "meta_classification_type": "U",
        "meta_norad_cat_id": 34567,
        "meta_element_set_no": 999,
        "meta_rev_at_epoch": 87239,
        "meta_bstar": 0.00016585843,
        "meta_mean_motion_dot": 3.66e-06,
        "meta_mean_motion_ddot": 0,
        "tle_line1": "1 34567U 93036VD  25354.80171990  .00000366  00000+0  16586-3 0  9993",
        "tle_line2": "2 34567  74.0407 142.2700 0074231 214.8446 269.2592 14.24024668872392"
      },
      "geometry": {
        "type": "Point",
        "coordinates": [
          -14.651212727516224,
          -54.87541812054224
        ]
      }
    },
    {
      "type": "Feature",
      "properties": {
        "norad_id": 34569,
        "name": "COSMOS 2251 DEB",
        "group": "cosmos-2251-debris",
        "lat": 63.494749691166966,
        "lon": -142.2178551599009,
        "alt_km": 743.9966449044623,
        "timestamp": "2025-12-21T07:34:34.909167+00:00",
        "meta_object_name": "COSMOS 2251 DEB",
        "meta_object_id": "1993-036VF",
        "meta_epoch": "2025-12-20T19:33:25.690752",
        "meta_mean_motion": 14.24771151,
        "meta_eccentricity": 0.01576715,
        "meta_inclination": 73.9894,
        "meta_ra_of_asc_node": 183.5346,
        "meta_arg_of_pericenter": 10.0797,
        "meta_mean_anomaly": 9.3302,
        "meta_ephemeris_type": 0,
        "meta_classification_type": "U",
        "meta_norad_cat_id": 34569,
        "meta_element_set_no": 999,
        "meta_rev_at_epoch": 87083,
        "meta_bstar": 0.00031496467,
        "meta_mean_motion_dot": 8.09e-06,
        "meta_mean_motion_ddot": 0,
        "tle_line1": "1 34569U 93036VF  25354.81488068  .00000809  00000+0  31496-3 0  9992",
        "tle_line2": "2 34569  73.9894 183.5346 0157671  10.0797   9.3302 14.24771151870836"
      },
      "geometry": {
        "type": "Point",
        "coordinates": [
          -142.2178551599009,
          63.494749691166966
        ]
      }
    },
    {
      "type": "Feature",
      "properties": {
        "norad_id": 34570,
        "name": "COSMOS 2251 DEB",
        "group": "cosmos-2251-debris",
        "lat": -50.185820639072624,
        "lon": -176.82495250426595,
        "alt_km": 1000.7956894515537,
        "timestamp": "2025-12-21T07:34:34.909177+00:00",
        "meta_object_name": "COSMOS 2251 DEB",
        "meta_object_id": "1993-036VG",
        "meta_epoch": "2025-12-20T08:39:52.015680",
        "meta_mean_motion": 13.99831836,
        "meta_eccentricity": 0.01902924,
        "meta_inclination": 73.9565,
        "meta_ra_of_asc_node": 205.0284,
        "meta_arg_of_pericenter": 85.8151,
        "meta_mean_anomaly": 93.6336,
        "meta_ephemeris_type": 0,
        "meta_classification_type": "U",
        "meta_norad_cat_id": 34570,
        "meta_element_set_no": 999,
        "meta_rev_at_epoch": 85707,
        "meta_bstar": 0.00037263362,
        "meta_mean_motion_dot": 6.16e-06,
        "meta_mean_motion_ddot": 0,
        "tle_line1": "1 34570U 93036VG  25354.36101870  .00000616  00000+0  37263-3 0  9991",
        "tle_line2": "2 34570  73.9565 205.0284 0190292  85.8151  93.6336 13.99831836857076"
      },
      "geometry": {
        "type": "Point",
        "coordinates": [
          -176.82495250426595,
          -50.185820639072624
        ]
      }
    }
  ]
}